[{"OBJECT_NAME":"STARLINK-3511","OBJECT_ID":"2022-016AQ","EPOCH":"2026-03-09T21:20:54.137472","MEAN_MOTION":15.08842842,"ECCENTRICITY":0.00012467,"INCLINATION":53.2182,"RA_OF_ASC_NODE":308.1552,"ARG_OF_PERICENTER":94.3109,"MEAN_ANOMALY":265.8026,"EPHEMERIS_TYPE":0,"CLASSIFICATION_TYPE":"U","NORAD_CAT_ID":51752,"ELEMENT_SET_NO":999,"REV_AT_EPOCH":22373,"BSTAR":-1.2868255e-5,"MEAN_MOTION_DOT":-4.93e-6,"MEAN_MOTION_DDOT":0},{"OBJECT_NAME":"LEMUR-2-MARHISYAM","OBJECT_ID":"2024-149BW","EPOCH":"2026-03-09T17:46:07.876416","MEAN_MOTION":15.0901552,"ECCENTRICITY":0.00035778,"INCLINATION":97.6912,"RA_OF_ASC_NODE":151.2662,"ARG_OF_PERICENTER":107.3271,"MEAN_ANOMALY":252.8349,"EPHEMERIS_TYPE":0,"CLASSIFICATION_TYPE":"U","NORAD_CAT_ID":60536,"ELEMENT_SET_NO":999,"REV_AT_EPOCH":8547,"BSTAR":0.00082973442,"MEAN_MOTION_DOT":0.00013075,"MEAN_MOTION_DDOT":0}]
